#aV2023 12 19  0  0  0.00000000     288 DD+AD WGS84 FIT  NGA
## 2293 172800.00000000   300.00000000 60297 0.0000000000000
+   32     1  2  3  4  5  6  7  8  9 10 11 12 13 14 15 16 17
+         18 19 20 21 22 23 24 25 26 27 28 29 30 31 32  0  0
+          0  0  0  0  0  0  0  0  0  0  0  0  0  0  0  0  0
+          0  0  0  0  0  0  0  0  0  0  0  0  0  0  0  0  0
+          0  0  0  0  0  0  0  0  0  0  0  0  0  0  0  0  0
++         2  2  2  2  2  2  2  2  2  2  2  2  2  2  2  2  2
++         2  2  2  2  2  2  2  2  2  2  2  2  2  2  2  0  0
++         0  0  0  0  0  0  0  0  0  0  0  0  0  0  0  0  0
++         0  0  0  0  0  0  0  0  0  0  0  0  0  0  0  0  0
++         0  0  0  0  0  0  0  0  0  0  0  0  0  0  0  0  0
%c cc cc ccc ccc cccc cccc cccc cccc ccccc ccccc ccccc ccccc
%c cc cc ccc ccc cccc cccc cccc cccc ccccc ccccc ccccc ccccc
%f  0.0000000  0.000000000  0.00000000000  0.000000000000000
%f  0.0000000  0.000000000  0.00000000000  0.000000000000000
%i    0    0    0    0      0      0      0      0         0
%i    0    0    0    0      0      0      0      0         0
/*      NGA, ST. LOUIS,MO.                                  
/*   EPHEMERIS COMPUTED FROM 2 DAYS OF DATA                 
/*   EPOCHA v8 SMOOTHER                                     
/*   G2139 IERS2010 SATIGS SATAPC                           
*  2023 12 19 19 45  0.00000000
P  1   -985.123299 -14955.449100 -22249.440056    164.236104                    
V  1  26270.704652  -7641.656551   4364.773290      0.006354                    
P  2   6245.569475 -16842.007261 -18989.271745   -513.226135                    
V  2  23828.813041  -8461.127760  15164.583841      0.053692                    
P  3  -7511.816418 -20514.385940 -15324.779858     66.528185                    
V  3  15166.672112  11720.916521 -23238.444001      0.272951                    
P  4    236.793858 -25152.679643   8323.169002    243.852037                    
V  4   5076.585340  -9657.609867 -29491.922985      0.100368                    
P  5  -4141.248581  15313.671375  21111.411029   -154.744001                    
V  5 -21536.580038 -16642.716651   7871.141741     -0.014387                    
P  6 -25722.180332   6313.599983  -2580.086848    472.876798                    
V  6   2649.314964  -2728.556325 -32089.458546     -0.118543                    
P  7 -17287.827393  -8590.929318  18919.776598    -16.044681                    
V  7  21395.731300  -8266.374518  15740.319811     -0.095891                    
P  8   4814.531849 -25882.203155    308.797011   -157.819665                    
V  8   3208.897622   1072.864227  31915.650300     -0.019700                    
P  9  -8843.399714 -18225.048623  17061.627615     31.898580                    
V  9   5812.034103 -21160.109828 -19548.797981      0.118006                    
P 10  21922.020072   8354.526467 -12569.356549    -65.968549                    
V 10  10954.348008  11931.351761  26298.173974     -0.015155                    
P 11 -22208.051899  11990.829269   8215.349199   -507.279503                    
V 11 -10698.128966    345.064557 -29558.190974     -0.149859                    
P 12   5442.393005  21083.628701 -15541.565582   -459.139565                    
V 12 -14663.291058 -12513.734502 -22449.147840     -0.039392                    
P 13 -13452.983024  21268.447860   7937.544210    607.325807                    
V 13   1130.105581 -10654.030436  29914.117871      0.038941                    
P 14 -22087.176137 -11374.999398  -9617.239874    275.394293                    
V 14  -6959.912735 -10409.287680  28051.755621      0.104796                    
P 15  -1617.690260  26385.986525     72.994995    108.592587                    
V 15  -3812.451903   -894.482354  31291.828609      0.038164                    
P 16  11294.858393  -9890.023268  21590.335247   -401.010127                    
V 16  19385.293816  20455.306398   -312.326077      0.072750                    
P 17 -14165.713607  -4226.769710 -21631.994772    721.713617                    
V 17   7632.732795 -27442.630999    492.346762     -0.007697                    
P 18  18252.719277   7180.453748  18009.055998   -510.560747                    
V 18 -21357.938462   7894.665726  18335.000447     -0.099344                    
P 19 -16332.161531   5145.807281 -20396.390243    414.750293                    
V 19   6824.831494 -24641.508807 -12133.868125      0.052482                    
P 20 -15816.692994   7054.058236  20144.335390    395.823443                    
V 20 -21030.377115 -14539.614916 -11626.863483     -0.019273                    
P 21   9652.878084 -17036.826074 -16976.612421    141.052691                    
V 21  22003.699318  -6837.126174  19750.993153     -0.011409                    
P 22 -20234.542583  -5823.491415 -15574.149199     63.145963                    
V 22 -12473.730872 -16657.509085  22108.541938     -0.067419                    
P 23  20829.540083  16606.639707  -1134.317124    119.119395                    
V 23   -273.189679   2570.184262  31945.387654      0.069918                    
P 24  -5341.709887  17823.787579 -19207.165818   -396.797947                    
V 24 -22524.832216   7831.714504  14245.737026     -0.079608                    
P 25  16255.050999  20263.523725  -6517.004156    482.117486                    
V 25  -7650.328470  -3080.684869 -29932.649921      0.014605                    
P 26  18520.799847  -3302.068203  18741.915152    207.871803                    
V 26  18105.049984  15939.919607 -14607.589570     -0.031800                    
P 27  12673.506523 -19385.891365  12341.891416    -85.001187                    
V 27   -692.810559  16437.565371  26396.631477     -0.046711                    
P 28  25451.443343  -5145.720519  -5593.023031    -74.497942                    
V 28  -5707.544605   4986.219635 -30697.824989     -0.102157                    
P 29   6319.133917  19414.951049  16887.675867   -609.622157                    
V 29  -7548.972467  20236.297229 -20482.358511      0.003460                    
P 30 -24185.320202   -991.047904  11356.020462   -455.555370                    
V 30  12631.823091  -7077.138821  26303.603096      0.043807                    
P 31  24765.975967  -9700.147863   2943.593119   -226.718098                    
V 31   4556.615613   1416.407562 -31045.666172     -0.002715                    
P 32  15334.496408   -148.393904 -21479.312183   -597.845707                    
V 32  -4989.606539  27295.722070  -3923.833121     -0.035488                    
EOF
